[{"OBJECT_NAME":"STARLINK-34458","OBJECT_ID":"2025-126S","EPOCH":"2026-03-15T06:00:00.999648","MEAN_MOTION":14.98316694,"ECCENTRICITY":0.0003128,"INCLINATION":70.0025,"RA_OF_ASC_NODE":20.4409,"ARG_OF_PERICENTER":273.4139,"MEAN_ANOMALY":119.9475,"EPHEMERIS_TYPE":0,"CLASSIFICATION_TYPE":"U","NORAD_CAT_ID":64360,"ELEMENT_SET_NO":999,"REV_AT_EPOCH":572,"BSTAR":0.0029808853,"MEAN_MOTION_DOT":0.00035644,"MEAN_MOTION_DDOT":0},{"OBJECT_NAME":"STARLINK-34243","OBJECT_ID":"2025-126T","EPOCH":"2026-03-15T05:56:55.679424","MEAN_MOTION":14.98358985,"ECCENTRICITY":0.00024252,"INCLINATION":70.003,"RA_OF_ASC_NODE":20.4763,"ARG_OF_PERICENTER":267.3447,"MEAN_ANOMALY":92.7435,"EPHEMERIS_TYPE":0,"CLASSIFICATION_TYPE":"U","NORAD_CAT_ID":64361,"ELEMENT_SET_NO":999,"REV_AT_EPOCH":4151,"BSTAR":0.00081803607,"MEAN_MOTION_DOT":9.688e-5,"MEAN_MOTION_DDOT":0},{"OBJECT_NAME":"STARLINK-34335","OBJECT_ID":"2025-126U","EPOCH":"2026-03-14T22:56:19.376448","MEAN_MOTION":14.98407323,"ECCENTRICITY":0.00035027,"INCLINATION":70.0023,"RA_OF_ASC_NODE":21.0612,"ARG_OF_PERICENTER":266.6464,"MEAN_ANOMALY":93.4294,"EPHEMERIS_TYPE":0,"CLASSIFICATION_TYPE":"U","NORAD_CAT_ID":64362,"ELEMENT_SET_NO":999,"REV_AT_EPOCH":4147,"BSTAR":-0.002199994,"MEAN_MOTION_DOT":-0.00026298,"MEAN_MOTION_DDOT":0},{"OBJECT_NAME":"STARLINK-34408","OBJECT_ID":"2025-126V","EPOCH":"2026-03-15T06:44:56.950080","MEAN_MOTION":14.98341733,"ECCENTRICITY":0.00026992,"INCLINATION":70.0031,"RA_OF_ASC_NODE":20.1886,"ARG_OF_PERICENTER":272.9273,"MEAN_ANOMALY":87.1577,"EPHEMERIS_TYPE":0,"CLASSIFICATION_TYPE":"U","NORAD_CAT_ID":64363,"ELEMENT_SET_NO":999,"REV_AT_EPOCH":4152,"BSTAR":0.00060178317,"MEAN_MOTION_DOT":7.097e-5,"MEAN_MOTION_DDOT":0},{"OBJECT_NAME":"STARLINK-34476","OBJECT_ID":"2025-126W","EPOCH":"2026-03-15T05:38:51.556416","MEAN_MOTION":14.98324553,"ECCENTRICITY":0.00029295,"INCLINATION":70.0023,"RA_OF_ASC_NODE":20.4303,"ARG_OF_PERICENTER":267.7508,"MEAN_ANOMALY":92.3316,"EPHEMERIS_TYPE":0,"CLASSIFICATION_TYPE":"U","NORAD_CAT_ID":64364,"ELEMENT_SET_NO":999,"REV_AT_EPOCH":4151,"BSTAR":0.00011747311,"MEAN_MOTION_DOT":1.309e-5,"MEAN_MOTION_DDOT":0},{"OBJECT_NAME":"STARLINK-34479","OBJECT_ID":"2025-126X","EPOCH":"2026-03-15T06:38:58.223328","MEAN_MOTION":14.98339955,"ECCENTRICITY":0.00049142,"INCLINATION":70.002,"RA_OF_ASC_NODE":20.5718,"ARG_OF_PERICENTER":266.8315,"MEAN_ANOMALY":93.2282,"EPHEMERIS_TYPE":0,"CLASSIFICATION_TYPE":"U","NORAD_CAT_ID":64365,"ELEMENT_SET_NO":999,"REV_AT_EPOCH":4151,"BSTAR":0.00027282071,"MEAN_MOTION_DOT":3.165e-5,"MEAN_MOTION_DDOT":0},{"OBJECT_NAME":"STARLINK-34484","OBJECT_ID":"2025-126Y","EPOCH":"2026-03-15T05:14:28.888224","MEAN_MOTION":14.99689824,"ECCENTRICITY":0.00055873,"INCLINATION":70.0084,"RA_OF_ASC_NODE":20.372,"ARG_OF_PERICENTER":311.1657,"MEAN_ANOMALY":48.902,"EPHEMERIS_TYPE":0,"CLASSIFICATION_TYPE":"U","NORAD_CAT_ID":64366,"ELEMENT_SET_NO":999,"REV_AT_EPOCH":4272,"BSTAR":0.066605403,"MEAN_MOTION_DOT":0.00879212,"MEAN_MOTION_DDOT":0},{"OBJECT_NAME":"STARLINK-34483","OBJECT_ID":"2025-126Z","EPOCH":"2026-03-15T05:20:58.445088","MEAN_MOTION":14.98399447,"ECCENTRICITY":0.00194809,"INCLINATION":70.0054,"RA_OF_ASC_NODE":20.3929,"ARG_OF_PERICENTER":195.6782,"MEAN_ANOMALY":164.3776,"EPHEMERIS_TYPE":0,"CLASSIFICATION_TYPE":"U","NORAD_CAT_ID":64367,"ELEMENT_SET_NO":999,"REV_AT_EPOCH":4151,"BSTAR":-0.0063475729,"MEAN_MOTION_DOT":-0.00075469,"MEAN_MOTION_DDOT":0},{"OBJECT_NAME":"STARLINK-34457","OBJECT_ID":"2025-126AA","EPOCH":"2026-03-14T20:38:07.769760","MEAN_MOTION":14.9833658,"ECCENTRICITY":0.00026384,"INCLINATION":70.002,"RA_OF_ASC_NODE":21.5226,"ARG_OF_PERICENTER":265.5889,"MEAN_ANOMALY":94.4969,"EPHEMERIS_TYPE":0,"CLASSIFICATION_TYPE":"U","NORAD_CAT_ID":64368,"ELEMENT_SET_NO":999,"REV_AT_EPOCH":4145,"BSTAR":0.00044187147,"MEAN_MOTION_DOT":5.184e-5,"MEAN_MOTION_DDOT":0},{"OBJECT_NAME":"STARLINK-34444","OBJECT_ID":"2025-126AB","EPOCH":"2026-03-15T06:21:11.103840","MEAN_MOTION":14.98345234,"ECCENTRICITY":0.00025906,"INCLINATION":70.0021,"RA_OF_ASC_NODE":20.5268,"ARG_OF_PERICENTER":271.1461,"MEAN_ANOMALY":88.9402,"EPHEMERIS_TYPE":0,"CLASSIFICATION_TYPE":"U","NORAD_CAT_ID":64369,"ELEMENT_SET_NO":999,"REV_AT_EPOCH":4151,"BSTAR":0.00076491945,"MEAN_MOTION_DOT":9.049e-5,"MEAN_MOTION_DDOT":0},{"OBJECT_NAME":"STARLINK-11732 [DTC]","OBJECT_ID":"2025-127A","EPOCH":"2026-03-15T05:36:48.848544","MEAN_MOTION":15.70847562,"ECCENTRICITY":0.00010708,"INCLINATION":42.9993,"RA_OF_ASC_NODE":51.1802,"ARG_OF_PERICENTER":285.8967,"MEAN_ANOMALY":74.1782,"EPHEMERIS_TYPE":0,"CLASSIFICATION_TYPE":"U","NORAD_CAT_ID":64370,"ELEMENT_SET_NO":999,"REV_AT_EPOCH":4437,"BSTAR":0.0010354809,"MEAN_MOTION_DOT":0.00134632,"MEAN_MOTION_DDOT":0},{"OBJECT_NAME":"STARLINK-11731 [DTC]","OBJECT_ID":"2025-127B","EPOCH":"2026-03-15T01:25:03.360288","MEAN_MOTION":15.70810959,"ECCENTRICITY":0.00015838,"INCLINATION":42.999,"RA_OF_ASC_NODE":52.4589,"ARG_OF_PERICENTER":214.7791,"MEAN_ANOMALY":145.2973,"EPHEMERIS_TYPE":0,"CLASSIFICATION_TYPE":"U","NORAD_CAT_ID":64371,"ELEMENT_SET_NO":999,"REV_AT_EPOCH":4434,"BSTAR":0.0021809588,"MEAN_MOTION_DOT":0.00288998,"MEAN_MOTION_DDOT":0},{"OBJECT_NAME":"STARLINK-11746 [DTC]","OBJECT_ID":"2025-127C","EPOCH":"2026-03-15T05:13:52.089600","MEAN_MOTION":15.71491385,"ECCENTRICITY":0.00044146,"INCLINATION":42.9995,"RA_OF_ASC_NODE":51.0525,"ARG_OF_PERICENTER":222.6673,"MEAN_ANOMALY":137.3852,"EPHEMERIS_TYPE":0,"CLASSIFICATION_TYPE":"U","NORAD_CAT_ID":64372,"ELEMENT_SET_NO":999,"REV_AT_EPOCH":4437,"BSTAR":0.0025342876,"MEAN_MOTION_DOT":0.00348202,"MEAN_MOTION_DDOT":0},{"OBJECT_NAME":"STARLINK-11748 [DTC]","OBJECT_ID":"2025-127D","EPOCH":"2026-03-14T22:38:32.338176","MEAN_MOTION":15.7092166,"ECCENTRICITY":0.00010572,"INCLINATION":42.9983,"RA_OF_ASC_NODE":53.3162,"ARG_OF_PERICENTER":266.7256,"MEAN_ANOMALY":93.3491,"EPHEMERIS_TYPE":0,"CLASSIFICATION_TYPE":"U","NORAD_CAT_ID":64373,"ELEMENT_SET_NO":999,"REV_AT_EPOCH":4432,"BSTAR":0.0021766174,"MEAN_MOTION_DOT":0.00289796,"MEAN_MOTION_DDOT":0},{"OBJECT_NAME":"STARLINK-11739 [DTC]","OBJECT_ID":"2025-127E","EPOCH":"2026-03-15T04:50:55.913856","MEAN_MOTION":15.70857097,"ECCENTRICITY":0.00016239,"INCLINATION":42.9987,"RA_OF_ASC_NODE":50.9221,"ARG_OF_PERICENTER":200.7577,"MEAN_ANOMALY":159.3225,"EPHEMERIS_TYPE":0,"CLASSIFICATION_TYPE":"U","NORAD_CAT_ID":64374,"ELEMENT_SET_NO":999,"REV_AT_EPOCH":4437,"BSTAR":0.0018522983,"MEAN_MOTION_DOT":0.00244527,"MEAN_MOTION_DDOT":0},{"OBJECT_NAME":"STARLINK-11738 [DTC]","OBJECT_ID":"2025-127F","EPOCH":"2026-03-14T22:37:13.692576","MEAN_MOTION":15.70907859,"ECCENTRICITY":9.8e-5,"INCLINATION":42.9987,"RA_OF_ASC_NODE":53.3092,"ARG_OF_PERICENTER":238.4431,"MEAN_ANOMALY":121.6341,"EPHEMERIS_TYPE":0,"CLASSIFICATION_TYPE":"U","NORAD_CAT_ID":64375,"ELEMENT_SET_NO":999,"REV_AT_EPOCH":4432,"BSTAR":0.0018817027,"MEAN_MOTION_DOT":0.00249086,"MEAN_MOTION_DDOT":0},{"OBJECT_NAME":"STARLINK-11745 [DTC]","OBJECT_ID":"2025-127G","EPOCH":"2026-03-15T05:29:10.005792","MEAN_MOTION":15.70866922,"ECCENTRICITY":0.00012231,"INCLINATION":42.9995,"RA_OF_ASC_NODE":51.1363,"ARG_OF_PERICENTER":279.6111,"MEAN_ANOMALY":80.4618,"EPHEMERIS_TYPE":0,"CLASSIFICATION_TYPE":"U","NORAD_CAT_ID":64376,"ELEMENT_SET_NO":999,"REV_AT_EPOCH":4437,"BSTAR":0.001183113,"MEAN_MOTION_DOT":0.00154386,"MEAN_MOTION_DDOT":0},{"OBJECT_NAME":"STARLINK-11742 [DTC]","OBJECT_ID":"2025-127H","EPOCH":"2026-03-15T00:00:02.000160","MEAN_MOTION":15.70740938,"ECCENTRICITY":0.00011961,"INCLINATION":43.0001,"RA_OF_ASC_NODE":52.7396,"ARG_OF_PERICENTER":281.4038,"MEAN_ANOMALY":134.4323,"EPHEMERIS_TYPE":0,"CLASSIFICATION_TYPE":"U","NORAD_CAT_ID":64377,"ELEMENT_SET_NO":999,"REV_AT_EPOCH":599,"BSTAR":0.00045389905,"MEAN_MOTION_DOT":0.00057956,"MEAN_MOTION_DDOT":0},{"OBJECT_NAME":"STARLINK-11711 [DTC]","OBJECT_ID":"2025-127J","EPOCH":"2026-03-15T05:06:12.515040","MEAN_MOTION":15.70887046,"ECCENTRICITY":0.00013028,"INCLINATION":42.9987,"RA_OF_ASC_NODE":51.0069,"ARG_OF_PERICENTER":207.5213,"MEAN_ANOMALY":152.5586,"EPHEMERIS_TYPE":0,"CLASSIFICATION_TYPE":"U","NORAD_CAT_ID":64378,"ELEMENT_SET_NO":999,"REV_AT_EPOCH":4448,"BSTAR":0.0010679304,"MEAN_MOTION_DOT":0.00139173,"MEAN_MOTION_DDOT":0},{"OBJECT_NAME":"STARLINK-11743 [DTC]","OBJECT_ID":"2025-127K","EPOCH":"2026-03-15T00:01:08.429664","MEAN_MOTION":15.70888769,"ECCENTRICITY":9.752e-5,"INCLINATION":42.9992,"RA_OF_ASC_NODE":52.8812,"ARG_OF_PERICENTER":234.7594,"MEAN_ANOMALY":125.3182,"EPHEMERIS_TYPE":0,"CLASSIFICATION_TYPE":"U","NORAD_CAT_ID":64379,"ELEMENT_SET_NO":999,"REV_AT_EPOCH":4433,"BSTAR":0.00087589073,"MEAN_MOTION_DOT":0.00113721,"MEAN_MOTION_DDOT":0},{"OBJECT_NAME":"STARLINK-11744 [DTC]","OBJECT_ID":"2025-127L","EPOCH":"2026-03-14T23:38:11.931648","MEAN_MOTION":15.70928662,"ECCENTRICITY":9.704e-5,"INCLINATION":42.9988,"RA_OF_ASC_NODE":52.7517,"ARG_OF_PERICENTER":239.2405,"MEAN_ANOMALY":120.8367,"EPHEMERIS_TYPE":0,"CLASSIFICATION_TYPE":"U","NORAD_CAT_ID":64380,"ELEMENT_SET_NO":999,"REV_AT_EPOCH":4433,"BSTAR":0.0018484417,"MEAN_MOTION_DOT":0.0024476,"MEAN_MOTION_DDOT":0},{"OBJECT_NAME":"STARLINK-11692 [DTC]","OBJECT_ID":"2025-127M","EPOCH":"2026-03-14T23:15:15.946848","MEAN_MOTION":15.70922924,"ECCENTRICITY":0.00011775,"INCLINATION":42.9989,"RA_OF_ASC_NODE":52.6243,"ARG_OF_PERICENTER":266.7593,"MEAN_ANOMALY":93.314,"EPHEMERIS_TYPE":0,"CLASSIFICATION_TYPE":"U","NORAD_CAT_ID":64381,"ELEMENT_SET_NO":999,"REV_AT_EPOCH":4444,"BSTAR":0.0017605894,"MEAN_MOTION_DOT":0.00232707,"MEAN_MOTION_DDOT":0},{"OBJECT_NAME":"STARLINK-11740 [DTC]","OBJECT_ID":"2025-127N","EPOCH":"2026-03-15T06:30:08.010720","MEAN_MOTION":15.70826298,"ECCENTRICITY":0.00016263,"INCLINATION":42.9993,"RA_OF_ASC_NODE":50.5797,"ARG_OF_PERICENTER":266.1604,"MEAN_ANOMALY":93.9077,"EPHEMERIS_TYPE":0,"CLASSIFICATION_TYPE":"U","NORAD_CAT_ID":64382,"ELEMENT_SET_NO":999,"REV_AT_EPOCH":4438,"BSTAR":7.7688064e-5,"MEAN_MOTION_DOT":9.526e-5,"MEAN_MOTION_DDOT":0}]
